{"type":"FeatureCollection","features":[{"type":"Feature","geometry":{"type":"MultiPolygon","coordinates":[[[[48.939111999918396,11.249129976167438],[48.93911055500007,10.574937032000065],[48.93911055500007,10.125429586000038],[48.93911055500007,9.451233012000046],[48.57918420400006,8.905839946000057],[48.33914717600004,8.542089539000116],[47.97916914900014,7.996567281000097],[47.366079956000135,7.996515605000084],[46.97923018400013,7.996567281000097],[46.920525757000064,8.025609437000085],[46.10191939300006,8.299727072000067],[45.514410034000036,8.496536764000055],[45.16177006100014,8.612136943000053],[44.54475345900005,8.814605205000063],[44.023855021000145,8.98552500400011],[43.98478763900005,9.008314311000092],[43.621502319000115,9.336898906000073],[43.548225139000124,9.336072083000147],[43.41903405700003,9.413018290000068],[43.370664917000056,9.54422475200002],[43.27067102100011,9.628353984000071],[43.23527266400009,9.691786804000103],[43.20633386200012,9.851208598000113],[43.18721358200014,9.883325501000044],[43.06768599500003,9.922522075000089],[42.99988651500013,10.06197092700009],[42.958235311000124,10.115559387000047],[42.836278931000095,10.208086040000083],[42.78946008300005,10.333323873000026],[42.776644328000145,10.424610290000118],[42.69520227100014,10.524707540000108],[42.64724654100013,10.632220358000026],[42.69964644300006,10.658549500000078],[42.74987593600008,10.77582916200005],[42.81943241400006,10.872567444000126],[42.89353641800011,10.919670512000039],[42.923715454000046,10.998787130000025],[43.24073326900009,11.4878604190001],[43.375987175000034,11.39158763200004],[43.459727410000085,11.351060289000088],[43.48812910200007,11.23891836100006],[43.58318118600005,11.135158596000053],[43.658946160000085,10.987982489000046],[43.82960045700008,10.80296458500004],[44.27426191500007,10.456732489000046],[44.389199603000066,10.397206508000068],[44.58614884900004,10.383584652000081],[44.750662429000045,10.427865496000038],[44.96200868800008,10.415799432000085],[45.00147545700008,10.46039459800005],[45.252289259000065,10.600531317000048],[45.33725019600007,10.670843817000048],[45.39242597700007,10.658392645000049],[45.487071160000085,10.684719143000052],[45.58611087300005,10.76585521000004],[45.67310631600009,10.796210028000075],[45.75359134200005,10.87173086100006],[45.802744988000086,10.87531159100007],[45.977549675000034,10.79913971600007],[46.102224155000044,10.770656643000052],[46.207367384000065,10.796210028000075],[46.26319420700008,10.776841539000088],[46.33513431100005,10.70970286700009],[46.44776451900009,10.693101304000038],[46.527679884000065,10.726223049000055],[46.65967858200008,10.754339911000045],[46.782237175000034,10.82172272300005],[46.88135826900009,10.893133856000077],[47.00806725400008,10.938950914000088],[47.180674675000034,11.080471096000053],[47.36687259200005,11.172796942000048],[47.52271569100009,11.18695709800005],[47.677744988000086,11.107977606000077],[47.76734459700003,11.130194403000075],[47.948252800000034,11.125148830000057],[48.160817905000044,11.145656643000052],[48.21989993600005,11.211127020000049],[48.29420006600009,11.222601630000042],[48.342784050000034,11.275458075000074],[48.478526238000086,11.29633209800005],[48.52198326900009,11.319281317000048],[48.65479576900009,11.330633856000077],[48.88884524800005,11.250555731000077],[48.939111999918396,11.249129976167438]]]]},"properties":{"name":"Somaliland"}},{"type":"Feature","geometry":{"type":"MultiPolygon","coordinates":[[[[-8.817034779999915,27.661464011000092],[-8.68238521299989,27.66143931100008],[-8.681920124999891,27.00083363800009],[-8.680809081999882,26.013141989000033],[-8.707215738999935,25.99500356],[-9.698653930999939,25.994951884000088],[-10.202292439999951,25.994951884000088],[-10.907314005999922,25.994951884000088],[-11.612438923999918,25.994951884000088],[-12.015308389999888,25.99490020800006],[-12.015308389999888,25.314579977000037],[-12.015308389999888,24.861015931000097],[-12.015308389999888,24.256298319000066],[-12.015308389999888,23.495181986000077],[-12.032723347999905,23.444978333000037],[-12.1345775959999,23.419346822000065],[-12.353892374999873,23.32247935000005],[-12.619431721999916,23.27082875600003],[-13.015247354999872,23.018001811000133],[-13.119892130999915,22.88353973400008],[-13.16549658199989,22.752695008000032],[-13.093330444999879,22.495475566000053],[-13.060335041999906,21.995402731000084],[-13.015247354999872,21.333427633000028],[-14.015496378999927,21.333272603000083],[-15.002257853999936,21.333169251000058],[-15.678082234999891,21.3330658980001],[-16.26771032699989,21.33291086800007],[-16.958830932999973,21.332859192000072],[-17.004926309999888,21.141914775000075],[-17.06786048099991,21.030910549000055],[-17.013743325393165,21.419971097583428],[-16.729956013999896,21.469801737000083],[-16.58004268399995,21.480550435000097],[-16.189885620999945,21.480550435000097],[-16.04002396599992,21.500084127],[-15.749964151999905,21.49031728100006],[-15.459930175999915,21.450268046000062],[-15.149871581999946,21.440501201000117],[-14.83981298899991,21.450268046000062],[-14.749973510999894,21.500084127],[-14.669875040999926,21.59966461200007],[-14.60982702599992,21.750068868000128],[-14.62985164399987,21.860423889000103],[-14.439914916999953,22.080152079000115],[-14.310052042999871,22.190507101],[-14.220186726999941,22.30964711500006],[-14.189904337999934,22.450258687000073],[-14.189904337999934,22.589914246000106],[-14.169905558999886,22.75985219300007],[-14.120089477999954,22.96004669200009],[-14.100064860999908,23.099676412000022],[-14.019992227999865,23.410251771],[-13.97994299299998,23.519599101000026],[-13.890129353999981,23.690493063000062],[-13.76998164899993,23.790125224000022],[-13.390108194999925,23.94050364200008],[-13.310009724999873,23.98055287700005],[-13.229962931999921,24.08990020700007],[-13.060024983999938,24.400475566000054],[-12.990184285999874,24.469799500000093],[-12.709942992999913,24.629970602000114],[-12.499981648999949,24.769600322000045],[-12.430140949999895,24.830165101000105],[-12.35983516399989,24.969794821000036],[-12.310019083999862,25.110432230000058],[-12.169872599999877,25.63972808800007],[-12.080058959999889,25.870204976000096],[-12.060008504999928,25.990301005000035],[-12.029751952999902,26.030350241000107],[-11.717238728999888,26.1035757450001],[-11.68354569499985,26.212974752000022],[-11.636210083999885,26.294985250000096],[-11.469708618999931,26.519596863000046],[-11.336900186999856,26.632897441000026],[-11.315867878999939,26.744208476000054],[-11.360309610999906,26.793042705000047],[-11.391573852999898,26.882908021000063],[-11.26264115399988,26.910219015000067],[-10.921835082999877,27.009825338000027],[-10.756780557999917,27.019592184000075],[-10.550281534999925,26.990291647000035],[-10.250454873999956,26.860428773000038],[-10.18844315599992,26.860428773000038],[-10.031708536999929,26.910219015000067],[-9.89936519399987,26.849680075000023],[-9.734362345999926,26.860428773000038],[-9.486315469999852,27.04987457300011],[-9.412056436999961,27.08796010400006],[-9.207469441999876,27.099690654000042],[-9.000918741999953,27.089923808],[-8.79390295399989,27.120180359000116],[-8.752871866999953,27.190486146000026],[-8.801706094999929,27.360424092000088],[-8.77338741099993,27.460030416000066],[-8.817034779999915,27.661464011000092]]]]},"properties":{"name":"Western Sahara"}},{"type":"Feature","geometry":{"type":"MultiPolygon","coordinates":[[[[34.012288940472615,35.06379525856936],[33.906505327911546,35.06910491074929],[33.824012492000065,35.06674957300005],[33.76613488800007,35.03160959900002],[33.6794345990001,35.03389876400006],[33.59152022400008,35.03393503900004],[33.47679854300014,35.057396139],[33.47679854300014,35.09480987600007],[33.40031742300005,35.19774932900005],[33.31525801600014,35.1618858850001],[33.1902527260001,35.18994618700013],[33.09583988400004,35.169740703000045],[32.85492435800006,35.07915191700003],[32.711388415000044,35.18163170900006],[32.865244988000086,35.15696849200009],[32.92937259200005,35.23297760600008],[32.92042076900009,35.397772528000075],[33.069795878000036,35.35872409400008],[33.14008008900004,35.36215942200005],[33.42750084700009,35.32892487200007],[33.66032962300005,35.35932038000004],[33.78350763800006,35.41671751100006],[33.834646030000044,35.40997955900008],[34.03562217700005,35.47138308500007],[34.181651238000086,35.55418528900009],[34.31967207100007,35.58616771000004],[34.578461134000065,35.68976471600007],[34.57276451900009,35.64354075700004],[34.441416863000086,35.583644924000055],[34.352305535000085,35.520697333000044],[34.137705925000034,35.41510651200008],[34.058929884000065,35.32412344000005],[33.971364780000044,35.32127513200004],[33.90739993600005,35.24290599200009],[33.89991295700008,35.16445547100005],[34.012288940472615,35.06379525856936]]]]},"properties":{"name":"Northern Cyprus"}},{"type":"Feature","geometry":{"type":"MultiPolygon","coordinates":[[[[33.6794345990001,35.03389876400006],[33.66159346500007,35.000345357000114],[33.49700402800005,35.0260802210001],[33.446309448000136,35.00117218000004],[33.45726485200004,35.10106272400007],[33.415923706000115,35.16033559200007],[33.301202027000045,35.11356842100007],[33.17387129700012,35.162661032000116],[33.12307336400005,35.13067332000013],[33.0467472740001,35.137752991000056],[32.92194868900009,35.07227895100006],[32.81585697400004,35.062770487000066],[32.80650354000011,35.09480987600007],[32.71271081600014,35.13377390600006],[32.711388415000044,35.18163170900006],[32.85492435800006,35.07915191700003],[33.09583988400004,35.169740703000045],[33.1902527260001,35.18994618700013],[33.31525801600014,35.1618858850001],[33.40031742300005,35.19774932900005],[33.47679854300014,35.09480987600007],[33.47679854300014,35.057396139],[33.59152022400008,35.03393503900004],[33.6794345990001,35.03389876400006]]]]},"properties":{"name":"Cyprus No Mans Area"}},{"type":"Feature","geometry":{"type":"MultiPolygon","coordinates":[[[[63.3839136150001,45.56582448300013],[63.210487508000085,45.58437632300006],[63.01292850700008,45.66000478100001],[62.900273885000104,45.747699687000036],[62.81252730300014,45.89518422500002],[62.81252730300014,46.06142730700007],[62.900273885000104,46.208963522000076],[63.01292850700008,46.29665842700008],[63.210487508000085,46.37226104700004],[63.4435482180001,46.38869415300009],[63.55739139800005,46.37226104700004],[63.75489872300011,46.29665842700008],[63.86755334500003,46.208963522000076],[63.955299927000056,46.06142730700007],[63.955299927000056,45.89518422500002],[63.86755334500003,45.747699687000036],[63.75489872300011,45.66000478100001],[63.55739139800005,45.58437632300006],[63.3839136150001,45.56582448300013]]]]},"properties":{"name":"Baykonur Cosmodrome"}},{"type":"Feature","geometry":{"type":"MultiPolygon","coordinates":[[[[33.181135614000084,21.995409469000037],[34.08417936900008,21.995454407000068],[33.99911757000007,21.76735270900008],[33.558441969291756,21.71095743830486],[33.181135614000084,21.995409469000037]]]]},"properties":{"name":"Bir Tawil"}},{"type":"Feature","geometry":{"type":"MultiPolygon","coordinates":[[[[-26.259836391999954,-58.43670012799993],[-26.30101477799991,-58.477227471999925],[-26.430287238999938,-58.45240650799991],[-26.430897589999915,-58.385023695999905],[-26.31236731699994,-58.38209400799991],[-26.259836391999954,-58.43670012799993]]]]},"properties":{"name":"South Georgia and the Islands"}},{"type":"Feature","geometry":{"type":"MultiPolygon","coordinates":[[[[-35.90880286399994,-54.6872697899999],[-35.88731848899994,-54.78443775799991],[-36.00772050699993,-54.86532968499995],[-36.10179602799991,-54.88746510199991],[-36.298817511999914,-54.74358489399992],[-36.31232662699995,-54.69036223799992],[-36.46328691299993,-54.53753020599993],[-36.54181881399995,-54.49651458099993],[-36.641468878999945,-54.510837497999944],[-36.813384568999936,-54.44500090899993],[-36.88849850199995,-54.37981536299992],[-37.00145423099991,-54.34579843499995],[-37.15339107999995,-54.25750090899993],[-37.36827551999994,-54.27743905999995],[-37.40965735599991,-54.24846770599993],[-37.38809160099993,-54.14771900799991],[-37.52904212099992,-54.133477471999925],[-37.66877193899995,-54.17310963299991],[-37.72451738199993,-54.133477471999925],[-37.61465410099993,-54.03785572699991],[-37.49242102799991,-54.00042083099993],[-37.40884355399993,-54.05136484199994],[-37.16966712099992,-54.044040622999944],[-36.89142818899995,-54.06951262799993],[-36.62157141799992,-54.119805596999925],[-36.67564856699994,-54.24944426899992],[-36.54507402299993,-54.23772551899992],[-36.48770097599993,-54.3142229149999],[-36.39443925699993,-54.24277109199994],[-36.260609503999945,-54.285414320999905],[-36.24388587099992,-54.375258070999905],[-36.17625891799992,-54.43027109199994],[-36.04198157499991,-54.463962497999944],[-36.10020911399994,-54.54501718499995],[-35.95059160099993,-54.570570570999905],[-35.90880286399994,-54.6872697899999]]]]},"properties":{"name":"South Georgia and the Islands"}},{"type":"Feature","geometry":{"type":"MultiPolygon","coordinates":[[[[-60.94762122299994,-51.94736093499995],[-61.043812628999945,-51.94060637799993],[-61.11953691299993,-51.89275481599992],[-61.12189693899995,-51.82586028399993],[-60.98232988199993,-51.77662525799991],[-60.87930253799993,-51.85857512799993],[-60.94762122299994,-51.94736093499995]]],[[[-59.63239498599995,-51.741306247999944],[-59.72565670499995,-51.79924895599993],[-59.87173417899993,-51.9489885399999],[-59.99486243399991,-51.99456145599993],[-60.259877081999946,-51.985446872999944],[-60.2630102199999,-52.06715260199991],[-60.36042232999995,-52.15357838299991],[-60.42536373599995,-52.144789320999905],[-60.53661048099991,-52.217054945999905],[-60.79678300699993,-52.17205169099992],[-60.867298956999946,-52.115166924999926],[-60.886789516999954,-52.036228122999944],[-60.63219153599994,-51.971774997999944],[-60.48302161399994,-51.97226327899995],[-60.39989173099991,-51.91659921699994],[-60.454741990999935,-51.79998137799993],[-60.37222245999993,-51.76921965899993],[-60.21471106699994,-51.77849700299993],[-60.18040930899991,-51.70720794099992],[-60.338449673999946,-51.70916106599992],[-60.51016191299993,-51.765883070999905],[-60.61017818899995,-51.74277109199994],[-60.624989386999914,-51.66961028399993],[-60.49010169199994,-51.70037200299993],[-60.24876868399991,-51.611586195999905],[-60.49038652299993,-51.526462497999944],[-60.47801673099991,-51.43572356599992],[-60.61204993399991,-51.41741301899992],[-60.605580206999946,-51.344008070999905],[-60.46157792899993,-51.38567473799992],[-60.32445227799991,-51.45330169099992],[-60.15314693899995,-51.48748137799993],[-60.02961178299995,-51.392510674999926],[-59.79161536399994,-51.41057708099993],[-59.74852454299992,-51.4470354149999],[-59.44395911399994,-51.400323174999926],[-59.41950436099995,-51.337823174999926],[-59.255970831999946,-51.387383721999925],[-59.261830206999946,-51.456963799999926],[-59.37140865799995,-51.52629973799992],[-59.43317623599995,-51.621351820999905],[-59.52253170499995,-51.61834075299993],[-59.63239498599995,-51.741306247999944]]],[[[-60.169911261999914,-51.392510674999926],[-60.20579993399991,-51.30291106599992],[-60.074289516999954,-51.29998137799993],[-60.04914303299995,-51.34644947699991],[-60.169911261999914,-51.392510674999926]]],[[[-57.81623287699995,-51.69353606599992],[-57.863840298999946,-51.72625090899993],[-58.14439856699994,-51.76230234199994],[-58.19985917899993,-51.8220354149999],[-58.41905676999994,-51.89218515399995],[-58.757801886999914,-51.891289971999925],[-58.78416907499991,-51.95712655999995],[-58.660715298999946,-51.955010674999926],[-58.60448157499991,-52.00204843499995],[-58.729400193999936,-52.051039320999905],[-58.79527747299994,-52.031914971999925],[-58.94774329299992,-52.056573174999926],[-59.13829505099994,-51.98333098799992],[-59.20026607999995,-52.0075822899999],[-59.145741339999915,-52.12558359199994],[-59.04898027299993,-52.21249765399995],[-59.22166907499991,-52.20720794099992],[-59.26244055899991,-52.15960051899992],[-59.385975714999915,-52.11191171699994],[-59.43374589799993,-52.211195570999905],[-59.35216223899994,-52.242120049999926],[-59.373890753999945,-52.299086195999905],[-59.46670488199993,-52.29566822699991],[-59.56281490799995,-52.23788827899995],[-59.62828528599994,-52.11060963299991],[-59.556630011999914,-52.01572030999995],[-59.581288214999915,-51.91130950299993],[-59.36375891799992,-51.82236093499995],[-59.35057532499991,-51.77662525799991],[-59.20718339799993,-51.70720794099992],[-59.072824673999946,-51.684665622999944],[-59.10069739499994,-51.621758721999925],[-59.01427161399994,-51.49179452899995],[-59.12531490799995,-51.456963799999926],[-59.08429928299995,-51.4060197899999],[-58.873605923999946,-51.371758721999925],[-58.90086829299992,-51.27776458099993],[-58.73350989499994,-51.32830169099992],[-58.48143469999991,-51.30095794099992],[-58.34361731699994,-51.36842213299991],[-58.32909094999991,-51.416273695999905],[-58.44546464799993,-51.47625090899993],[-58.38467363199993,-51.53964609199994],[-58.29039466099994,-51.56755950299993],[-58.23005123599995,-51.52157968499995],[-58.33702551999994,-51.48121510199991],[-58.227447068999936,-51.392510674999926],[-57.90640214799993,-51.37664153399993],[-57.8196508449999,-51.47779713299991],[-57.80260169199994,-51.549493096999925],[-58.01134192599994,-51.50725676899992],[-58.14517167899993,-51.54265715899993],[-58.028553839999915,-51.59107838299991],[-57.78099524599992,-51.619398695999905],[-57.81623287699995,-51.69353606599992]]],[[[-59.74840247299994,-51.28329843499995],[-59.6907445949999,-51.26213958099993],[-59.502023891999954,-51.26213958099993],[-59.447377081999946,-51.324151299999926],[-59.57677161399994,-51.33025481599992],[-59.63581295499995,-51.28948333099993],[-59.74840247299994,-51.28329843499995]]]]},"properties":{"name":"Falkland Islands"}},{"type":"Feature","geometry":{"type":"MultiPolygon","coordinates":[[[[55.04867597700019,25.885768947000088],[55.032644076000054,25.854641018000052],[55.01205488400018,25.88161855700008],[55.04867597700019,25.885768947000088]]]]},"properties":{"name":"Iran"}},{"type":"Feature","geometry":{"type":"MultiPolygon","coordinates":[[[[43.14023564716607,12.720147020078132],[43.151513907915,12.720531506240027],[43.15202655613086,12.712841783002121],[43.14331153646123,12.7118164865704],[43.14023564716607,12.720147020078132]]]]},"properties":{"name":"Eritrea"}},{"type":"Feature","geometry":{"type":"MultiPolygon","coordinates":[[[[-48.66061601418252,-78.04701873159873],[-48.1513964503784,-78.04706960058677],[-46.66285681821098,-77.83147552506506],[-45.15475765642109,-78.04706960058677],[-43.92082780615574,-78.47810272233328],[-43.48994971370611,-79.0855599913685],[-43.37243750667439,-79.51664478954731],[-43.33326677099714,-80.0261227355129],[-44.880536668464266,-80.33964365022769],[-46.50617387550203,-80.59435678499433],[-48.38642086444183,-80.82948455192233],[-50.48210689960646,-81.02544158317313],[-52.85198808451179,-80.96668547965729],[-54.16425940613162,-80.63352752067158],[-53.987991095584036,-80.22202809033138],[-51.85313432474216,-79.94772958772612],[-50.99132646341059,-79.6146233051727],[-50.364594692574755,-79.1834868305616],[-49.91413123228649,-78.81120900488669],[-48.66061601418252,-78.04701873159873]]],[[[-66.29003089055513,-80.25577280061798],[-64.03768775089767,-80.29494353629522],[-61.88324561221718,-80.39287037548831],[-61.13897579613348,-79.98137094514813],[-60.61011918805844,-79.6286792947561],[-59.572094692611586,-80.04017872509628],[-60.15965572777019,-81.00032683707929],[-62.25539343936711,-80.86317758577665],[-64.48812537296979,-80.92193368929253],[-65.74166642928991,-80.5888274067391],[-65.74166642928991,-80.54965667106185],[-66.29003089055513,-80.25577280061798]]],[[[-73.9158186510023,-71.26934457792578],[-73.23033077665059,-71.15177988701751],[-72.07471655952358,-71.19095062269476],[-71.78096188016042,-70.68147267672917],[-71.72217993842841,-70.30919565849851],[-71.74179114448319,-69.50578216565675],[-71.1738154771632,-69.03547495536841],[-70.25325151231577,-68.87874033622717],[-69.72444658067303,-69.25101735445783],[-69.48942216660959,-69.62334604912077],[-69.05851823594381,-70.0740162151382],[-68.72554114447112,-70.5051526897493],[-68.45134599473043,-70.95582285576673],[-68.33383378769872,-71.40649302178416],[-68.51012793646244,-71.79840708428573],[-68.78429724798698,-72.17073577894867],[-69.95947099473648,-72.3078850302513],[-71.07588863797011,-72.50384206150208],[-72.38813412137378,-72.48425669366347],[-71.89849992540829,-72.0923426311619],[-73.07362199572549,-72.22949188246453],[-74.19003963895912,-72.36669281019945],[-74.95389482288145,-72.07275726332328],[-75.01262508818117,-71.6612578329831],[-73.9158186510023,-71.26934457792578]]],[[[-102.33072506387639,-71.89416432076682],[-101.70396745482441,-71.7177918499104],[-100.43091854531409,-71.85499277764532],[-98.98154964882391,-71.9333342489998],[-97.88474321164506,-72.07053517673472],[-96.78793677446619,-71.95297129327072],[-96.20034990109144,-72.52120534275215],[-96.98376461463623,-72.44286387139768],[-98.19808325884682,-72.48203460707492],[-99.43201310911218,-72.44286387139768],[-100.78345516640925,-72.50161997491354],[-101.80186845580137,-72.30566294366275],[-102.33072506387639,-71.89416432076682]]],[[[-122.62173458544193,-73.65777760202387],[-122.40624467022907,-73.32461883559391],[-121.21151139385711,-73.50099049900608],[-119.91885127829204,-73.65772511814733],[-118.72414303269196,-73.48135345473517],[-119.29211870001194,-73.8340967815595],[-120.23221716370998,-74.08880991632614],[-121.62282995668428,-74.01046844497165],[-122.62173458544193,-73.65777760202387]]],[[[-127.28312964568192,-73.46176889434079],[-126.55847184309725,-73.24622568780714],[-125.55956640689534,-73.48135345473517],[-124.03188187726683,-73.87326751723673],[-125.91218054263894,-73.7361182659341],[-127.28312964568192,-73.46176889434079]]],[[[-163.7128956777287,-78.59566741324154],[-163.1058009511638,-78.22333791113434],[-161.24511349184644,-78.38017588314018],[-160.24620805564453,-78.69364512142268],[-159.48240454815448,-79.04633757925897],[-159.20818356019765,-79.49705942170868],[-161.12760128481472,-79.63420867301133],[-162.43984676821842,-79.28146534618699],[-163.027407803377,-78.92877369579496],[-163.06660437727038,-78.8699659158468],[-163.7128956777287,-78.59566741324154]]],[[[180,-84.71338],[180,-90],[-180,-90],[-180,-84.71338],[-179.05867733469117,-84.13941171664914],[-177.25677181710577,-84.45293263136392],[-176.08467281807765,-84.09925912875838],[-175.82988216866258,-84.11791432081571],[-174.38250281481567,-84.53432301222352],[-173.11655941474544,-84.11791432081571],[-172.88910559801278,-84.06101856886238],[-169.9512229075714,-83.88464690545015],[-168.9999889801587,-84.11791432081571],[-167.02209937240337,-84.57049651482794],[-164.1821435211551,-84.82520964959463],[-161.9297745432814,-85.13873056430941],[-158.07137956442492,-85.37391000766968],[-155.19225297749927,-85.09955982863215],[-150.942098965438,-85.29551685988292],[-148.53307288307155,-85.60903777459771],[-145.88891822633295,-85.31510222772158],[-143.10771847860048,-85.04075204868394],[-142.89227943237557,-84.57049651482794],[-146.82906836646328,-84.53127410271838],[-150.06073157448392,-84.29614633579035],[-150.9029282297608,-83.90423227328881],[-153.58620113830017,-83.68868987419938],[-153.4099069895364,-83.23801970818204],[-153.03775916238646,-82.82652027784184],[-152.66563717345272,-82.45419158317884],[-152.86151669005503,-82.04269215283858],[-154.52629879455392,-81.76839365023335],[-155.29017981669236,-81.41565032340901],[-156.83744971415953,-81.10212940869428],[-154.4087865875222,-81.16093718864244],[-152.0976615061328,-81.00415089306881],[-150.6482926096426,-81.33730885205455],[-148.86599829811203,-81.0433733051783],[-147.22074988501947,-80.67104461051548],[-146.41774899619182,-80.33793832796204],[-146.77028642473124,-79.92643889762189],[-148.06294654029634,-79.65208871858425],[-149.53190080462508,-79.35820484814042],[-151.58841610411247,-79.29939706819226],[-153.39032162169778,-79.16224781688965],[-155.32937639058574,-79.06426930126423],[-155.97566769104412,-78.69193979915707],[-157.26830196839302,-78.37841888444223],[-158.05176835837008,-78.02567555761794],[-158.365134243788,-76.889207458655],[-157.8754742096064,-76.98723765071264],[-156.974573127246,-77.30075856542754],[-155.32937639058574,-77.20272837336978],[-153.74283240457677,-77.06557912206722],[-152.92024695535474,-77.49666392024602],[-151.33378048399427,-77.39873708105284],[-150.00194963275192,-77.18314300553124],[-148.7484860910803,-76.90884450292594],[-147.61248308000805,-76.57573822037256],[-146.10440894899006,-76.47775970474709],[-146.14352800823497,-76.1054310100842],[-146.4960912749905,-75.7331539918535],[-146.20230994996697,-75.38041066502922],[-144.9096239961858,-75.20403900161699],[-144.32203712281103,-75.53719696060273],[-142.79435259318257,-75.34123992935196],[-141.63876421427165,-75.08647511815298],[-140.2090065238362,-75.06688975031443],[-138.85759030475532,-74.96891123468896],[-137.5061999238905,-74.73378346776099],[-136.42890133990187,-74.51824106867161],[-135.21458269569132,-74.30269866958218],[-134.43119382036258,-74.36145477309799],[-133.7456542695786,-74.43984792088486],[-132.25716792873203,-74.30269866958218],[-130.92531123927358,-74.47901865656195],[-129.55428381413782,-74.45943328872346],[-128.2420383307342,-74.32228403742073],[-125.40208247948584,-74.51824106867161],[-124.01149552472765,-74.47901865656195],[-122.56215246645365,-74.49860402440066],[-121.07361283428622,-74.51824106867161],[-119.70255957093428,-74.47901865656195],[-118.68414547409799,-74.18508310968588],[-117.46980099167126,-74.02834849054466],[-116.21631161178345,-74.24389088963397],[-115.02155249719539,-74.06751922622186],[-113.9443314278551,-73.71482757582987],[-113.29798845096451,-74.02834849054466],[-112.94545182986934,-74.38104014093665],[-112.29908301476263,-74.71419809992238],[-111.26105851931567,-74.4202625530462],[-110.06632524294378,-74.79253957127685],[-108.71490902386279,-74.91010345474086],[-107.55934648316816,-75.18445363377845],[-106.14914832235507,-75.12569753026253],[-104.87607357462872,-74.94932586685042],[-103.36794857462269,-74.98849660252768],[-102.01650651732564,-75.12569753026253],[-100.64553076862228,-75.30201751724246],[-100.1166999987633,-74.87093271906349],[-100.763042975654,-74.53782643651022],[-101.25270300983556,-74.18508310968588],[-102.54533728718457,-74.10674163833141],[-103.11331295450452,-73.73441294366842],[-103.32875200072931,-73.36208424900553],[-103.68128862182442,-72.61753021254418],[-102.9174851143344,-72.75467946384686],[-101.60523963093078,-72.81343556736266],[-100.31252783893342,-72.75467946384686],[-99.13737993040007,-72.91141408298807],[-98.11888912635953,-73.2053496298642],[-97.68803687212608,-73.5580412802563],[-96.33659481482897,-73.6168490602044],[-95.0439605374799,-73.47969980890184],[-93.67290727412814,-73.28374277765096],[-92.43900326207898,-73.16617889418706],[-91.42056413447074,-73.40130666111509],[-90.08873328322846,-73.32291351332816],[-89.22695126011297,-72.55872243259591],[-88.42395117872957,-73.00939259861343],[-87.26833696160259,-73.18576426202566],[-86.01482174349849,-73.08778574640019],[-85.19223629427654,-73.47969980890184],[-83.87999081087281,-73.51887054457893],[-82.66564632844609,-73.63643442804306],[-81.4709130520742,-73.85197682713243],[-80.68744666209705,-73.47969980890184],[-80.29579098175702,-73.12695648207739],[-79.29688554555503,-73.51887054457893],[-77.92585812041932,-73.42089202895363],[-76.90736731637878,-73.63643442804306],[-76.2218794420271,-73.96954071059645],[-74.89004859078483,-73.87161387140338],[-73.85202409533798,-73.65601979588166],[-72.83353329129744,-73.40130666111509],[-71.61921464708689,-73.26415740981241],[-70.20904232448999,-73.1465418499161],[-68.93591590033128,-73.00939259861343],[-67.95662167018412,-72.79385019952406],[-67.36906063502556,-72.48032928480927],[-67.13403622096206,-72.04924448663041],[-67.25154842799373,-71.63774505629027],[-67.56494015162792,-71.24583099378873],[-67.91747677272303,-70.85391693128707],[-68.23084265814094,-70.46205454521782],[-68.48545244004305,-70.10931121839354],[-68.54420854355897,-69.717397155892],[-68.44628170436579,-69.3255347698227],[-67.97623287623895,-68.95320607515976],[-67.58449968125035,-68.5417066448195],[-67.42784257675754,-68.14984425875025],[-67.62367041692767,-67.7187594605715],[-67.74118262395939,-67.3268453980699],[-67.25154842799373,-66.87617523205245],[-66.7031839667286,-66.5822396851762],[-66.05681515162189,-66.20996266694567],[-65.37132727727015,-65.89639007579859],[-64.56827551945446,-65.6025062053547],[-64.17654232446586,-65.1714230220644],[-63.62815202498456,-64.8970728430267],[-63.00139441593262,-64.6423080318279],[-62.041685553624006,-64.58355192831198],[-61.41492794457207,-64.27003101359719],[-60.70985470238173,-64.07407398234642],[-59.887269253159616,-63.956510098882404],[-59.16258480491456,-63.701745287683536],[-58.59455746116231,-63.38822437296864],[-57.811142747617566,-63.27066048950462],[-57.223581712458895,-63.52542530070366],[-57.5957295396089,-63.85853158325705],[-58.61414282900097,-64.15246713013318],[-59.04507259788289,-64.3680095292226],[-59.78934241396661,-64.2112232336491],[-60.61192786318867,-64.3092017492744],[-61.29741573754035,-64.54432951620254],[-62.02210018578546,-64.7990943274014],[-62.51176021996696,-65.09302987427748],[-62.6488577948374,-65.48494232189068],[-62.59012752953771,-65.85721934012133],[-62.12007870141076,-66.19032562267466],[-62.80556657576244,-66.42550506603499],[-63.7456900702324,-66.50384653738956],[-64.29410620792999,-66.83700449637524],[-64.88169308130466,-67.15047373465768],[-65.50842485214054,-67.58161020926889],[-65.66508195663334,-67.95388722749948],[-65.31254533553812,-68.36533498140739],[-64.7837145656793,-68.67890757255452],[-63.961103278241126,-68.9139836630502],[-63.1972997707511,-69.22755625419728],[-62.78595536970778,-69.61941864026653],[-62.570516323482934,-69.99174733492953],[-62.27673580590357,-70.38366139743107],[-61.80666113956062,-70.71676767998451],[-61.51290646019743,-71.0890446982151],[-61.37580888532716,-72.01007375095315],[-61.08197669131556,-72.38235076918386],[-61.003661058177215,-72.7742648316854],[-60.69026933454313,-73.16617889418706],[-60.827366909413456,-73.69524220799121],[-61.37580888532716,-74.10674163833141],[-61.96336992048572,-74.43984792088486],[-63.29520077172799,-74.57699717218742],[-63.7456900702324,-74.92974049901176],[-64.35283647322962,-75.2628467815652],[-65.86098731145182,-75.63512379979574],[-67.19281816269415,-75.79191009536942],[-69.7977237616629,-76.22299489354822],[-70.6007238430463,-76.63449432388842],[-72.2067756822454,-76.67366505956568],[-73.9695363023697,-76.63449432388842],[-75.55597693551408,-76.71288747167517],[-77.24037024606764,-76.71288747167517],[-76.92697852243361,-77.10480153417677],[-75.39929399280499,-77.28106984472436],[-74.28287634957144,-77.55542002376177],[-73.6561187405195,-77.90811167415393],[-74.7725363837531,-78.22163258886872],[-76.49610042998398,-78.12365407324324],[-77.92585812041932,-78.37841888444223],[-78.0237849596125,-79.18183318472825],[-76.8486370510791,-79.51493946728169],[-76.63322384307043,-79.88721648551223],[-75.36009741891172,-80.25954518017522],[-73.24485185412459,-80.41633147574879],[-71.44294633653925,-80.69062997835402],[-70.01316280788774,-81.00415089306881],[-68.19164608424757,-81.3176718077836],[-65.70427853052672,-81.47445810335722],[-63.25603003605073,-81.74875660596251],[-61.55202551944234,-82.04269215283858],[-59.69141557477349,-82.37585011182438],[-58.71212134462627,-82.84610564568038],[-58.22248714866089,-83.21843434034338],[-57.008116828017876,-82.86569101351904],[-55.362894253141576,-82.5717554666428],[-53.61977067728827,-82.25823455192807],[-51.54364417174605,-82.00352141716132],[-49.76134986021549,-81.7291712381238],[-47.27393063006224,-81.70958587028525],[-44.82570797380254,-81.84673512158781],[-42.80836340999241,-82.08191456494814],[-42.162020433101816,-81.65082976676933],[-40.771433478343624,-81.3568942198932],[-38.24481767429711,-81.33730885205455],[-36.26666968438025,-81.12171477653294],[-34.38639685722438,-80.90617237744351],[-32.31029618989834,-80.76902312614078],[-30.097097947702025,-80.59265146272867],[-28.549802212018733,-80.33793832796204],[-29.25490129242513,-79.9851950011377],[-29.685805223090995,-79.63250335074571],[-29.685805223090995,-79.260226332515],[-31.62480831554666,-79.29939706819226],[-33.68132361503399,-79.45613168733348],[-35.63991207532831,-79.45613168733348],[-35.91410722506902,-79.08385466910289],[-35.77700965019869,-78.33924814876502],[-35.32654618991046,-78.12365407324324],[-33.89676266125889,-77.88852630631527],[-32.21236935070527,-77.65345021581953],[-30.99805070649461,-77.35951466894335],[-29.783732062284116,-77.06557912206722],[-28.882779303491418,-76.67366505956568],[-27.511751878355653,-76.49734507258574],[-25.474821946706925,-76.28180267349632],[-23.927552049239807,-76.24258026138676],[-22.458597784910978,-76.1054310100842],[-21.224693772861826,-75.90947397883343],[-20.010375128651106,-75.6743462119054],[-17.5229817367142,-75.12569753026253],[-16.641588507544043,-74.79253957127685],[-15.70149085129026,-74.49860402440066],[-15.407710333710895,-74.10674163833141],[-16.4653201969964,-73.87161387140338],[-16.11278357590129,-73.46011444106318],[-15.44685523117198,-73.1465418499161],[-14.408804897509015,-72.95058481866533],[-13.311972622114013,-72.7154570517373],[-12.293507656289592,-72.40193613702252],[-11.510067104528616,-72.01007375095315],[-11.020432908563066,-71.53976654066486],[-10.295774298534184,-71.26541636162733],[-9.101015183946117,-71.32422414157548],[-8.611380987980624,-71.65733042412887],[-7.416621873392444,-71.69650115980608],[-7.377451137715298,-71.32422414157548],[-6.868231573911146,-70.93231007907394],[-5.790984666354802,-71.0302885946993],[-5.536374884452698,-71.4026172893623],[-4.341667446296924,-71.4613733928781],[-3.048981492515622,-71.28505340589817],[-1.795492112627812,-71.16743784600186],[-0.65948910155555,-71.22624562595007],[-0.228636847322093,-71.63774505629027],[0.868195428072909,-71.30463877373683],[1.886686232113505,-71.12826711032471],[3.022637566753417,-70.9911178590221],[4.139055209987021,-70.85391693128707],[5.157546014027616,-70.61878916435904],[6.273911980828871,-70.46205454521782],[7.135719842160597,-70.24651214612834],[7.742866245157813,-69.89376881930406],[8.487110223025297,-70.14853363050304],[9.525134718472202,-70.01133270276819],[10.817820672253333,-70.83433156344853],[11.953823683325595,-70.63837453219776],[12.404287143613942,-70.24651214612834],[13.422777947654367,-69.97216196709093],[14.734997592841978,-70.03091807060673],[15.126756626046586,-70.40324676526973],[15.94934207526859,-70.03091807060673],[17.02658898282516,-69.91335418714277],[18.201711053142276,-69.87418345146551],[19.259372592860018,-69.89376881930406],[20.375738559661443,-70.01133270276819],[21.452985467217786,-70.07014048271628],[21.923034295344735,-70.40324676526973],[22.56940311045139,-70.69718231214586],[23.666183709414213,-70.52081064873374],[24.841357456163564,-70.48163991305648],[25.977308790803647,-70.48163991305648],[27.09372643403725,-70.46205454521782],[28.09258019380684,-70.32485361748297],[29.15024173352458,-70.20728973401896],[30.031583286262503,-69.93293955498132],[30.97173261894858,-69.7566195680015],[31.990171746556825,-69.65864105237603],[32.75405276869532,-69.3842908733385],[33.30244306817667,-68.83564219169574],[33.87041873549657,-68.50258758557459],[34.908494907375825,-68.65927052828351],[35.300202264148254,-69.01201385510791],[36.16201012547975,-69.24714162203594],[37.2000346209266,-69.16874847424907],[37.905107863116825,-69.52144012464123],[38.649403517416886,-69.77620493584016],[39.66789432145737,-69.54107716891207],[40.02043094255248,-69.10994069430097],[40.92135786312906,-68.93362070732115],[41.959434035008144,-68.60051442476771],[42.938702426939074,-68.46331349703274],[44.11387617368865,-68.26740814221426],[45.719928012887806,-67.8167379761968],[46.50334272643261,-67.60119557710749],[47.443440382686276,-67.7187594605715],[48.34441897969509,-67.36606781017946],[48.99073611836957,-67.09171763114188],[49.930885451055644,-67.11130299898048],[50.753470900277705,-66.87617523205245],[50.94932457866389,-66.52348358166046],[51.79154707215696,-66.24913340262287],[52.61413252137896,-66.0531763713721],[53.61303795758079,-65.89639007579859],[54.533550245996025,-65.81804860444396],[55.41494347516618,-65.87680470795993],[56.35504113141985,-65.97478322358535],[57.15809288923566,-66.24913340262287],[57.25596805199649,-66.68021820080168],[58.13736128116665,-67.01332448335512],[58.744507684163864,-67.28767466239265],[59.93931847518422,-67.40523854585672],[60.60522098169736,-67.67958872489424],[61.42780643091936,-67.95388722749948],[62.38748945501169,-68.01269500744758],[63.19048953639515,-67.8167379761968],[64.052349074159,-67.40523854585672],[64.9924467304129,-67.62072926851374],[65.97171512234388,-67.73834482840999],[66.91186445502973,-67.85590871187412],[67.89113284696089,-67.93430185966076],[68.89003828316288,-67.93430185966076],[69.71262373238477,-68.97279144299841],[69.67345299670745,-69.22755625419728],[69.55594078967584,-69.67822642021474],[68.59625776558352,-69.93293955498132],[67.81273969917413,-70.30526824964431],[67.94988895047663,-70.69718231214586],[69.06630659371024,-70.67754526787496],[68.92915734240779,-71.06945933037656],[68.41998945503593,-71.4417880250395],[67.94988895047663,-71.85328745537964],[68.71376997261513,-72.16680837009437],[69.86930667509387,-72.26478688571984],[71.02489505400456,-72.08841522230773],[71.57328535348603,-71.69650115980608],[71.90628828317489,-71.32422414157548],[72.45462690622401,-71.01070322686058],[73.08141035349206,-70.71676767998451],[73.33602013539416,-70.36402435316018],[73.86487674346921,-69.87418345146551],[74.49155683787268,-69.77620493584016],[75.62755984894494,-69.73703420016284],[76.62646528514676,-69.61941864026653],[77.64490441275518,-69.46268402112526],[78.13453860872056,-69.07076995862371],[78.42837080273216,-68.69844126396072],[79.1138586770839,-68.32621592216248],[80.09312706901488,-68.07150278739579],[80.93534956250772,-67.87554575614502],[81.48379153842143,-67.54238779715922],[82.05176720574138,-67.36606781017946],[82.77642581577044,-67.20928151460589],[83.77533125197237,-67.30726003023125],[85.65552656447994,-67.09171763114188],[86.75235883987477,-67.15047373465768],[87.47701744990383,-66.87617523205245],[87.98628869014021,-66.20991099051338],[88.35841067907398,-66.4842611695509],[88.82840783076853,-66.95456837983926],[89.6706303242616,-67.15047373465768],[90.63036502478627,-67.22886688244449],[91.59009972531084,-67.11130299898048],[92.60853885291903,-67.18969614676723],[93.54863650917292,-67.20928151460589],[94.17541995644098,-67.11130299898048],[95.01759077350164,-67.17011077892869],[95.78147179564019,-67.385653178018],[96.68239871621677,-67.24850392671544],[97.75964562377311,-67.24850392671544],[98.68020958862053,-67.11130299898048],[99.71818240763503,-67.24850392671544],[100.38418826701275,-66.9153459677297],[100.8933561543846,-66.5822396851762],[101.57889570516852,-66.30788950613868],[102.83241092327262,-65.56328379324515],[103.47867638551475,-65.70048472098],[104.24255740765307,-65.97478322358535],[104.9084599141662,-66.32752655040969],[106.18156050010873,-66.93493133556836],[107.16088056847207,-66.95456837983926],[108.08139285688713,-66.95456837983926],[109.15863976444365,-66.83700449637524],[110.23583499556781,-66.69980356864033],[111.05847212122205,-66.42550506603499],[111.74395999557385,-66.13156951915892],[112.86037763880745,-66.09234710704936],[113.60467329310734,-65.87680470795993],[114.38808800665197,-66.0727617392107],[114.89730757045618,-66.38628265392543],[115.60238081264652,-66.69980356864033],[116.69916141160934,-66.66063283296302],[117.38470096239314,-66.9153459677297],[118.57946007698126,-67.17011077892869],[119.83292361865301,-67.26808929455399],[120.8709997905321,-67.18969614676723],[121.65441450407707,-66.87617523205245],[122.32036868702232,-66.56265431733766],[123.2212956075989,-66.4842611695509],[124.1222742046076,-66.62146209728587],[125.16024702362222,-66.71938893647894],[126.10039635630835,-66.56265431733766],[127.00142662974929,-66.56265431733766],[128.80328047090234,-66.75861134858849],[129.70425906791115,-66.5822396851762],[130.78145429903543,-66.42550506603499],[131.79994510307586,-66.38628265392543],[132.9358964377161,-66.38628265392543],[133.85646040256336,-66.28830413830013],[134.75738732313982,-66.20996266694567],[135.0315824728807,-65.72007008881866],[135.0707532085578,-65.30857065847846],[135.6974849793935,-65.58286916108369],[135.87380496637343,-66.03359100353345],[136.2067045431977,-66.4450904338737],[136.61804894424108,-66.77819671642698],[137.46027143773392,-66.95456837983926],[138.59622277237406,-66.8957605998911],[139.90844241756145,-66.87617523205245],[140.80942101457026,-66.81736745210435],[142.1216923361901,-66.81736745210435],[143.06184166887613,-66.79778208426569],[144.37406131406362,-66.83700449637524],[145.490427280865,-66.9153459677297],[146.1955521994878,-67.22886688244449],[145.99969852110144,-67.60119557710749],[146.64606733620815,-67.89513112398367],[147.7232625673323,-68.1302588909117],[148.83962853413368,-68.38502370211057],[150.13231448791487,-68.56129201265821],[151.48370486877957,-68.71812998466402],[152.50224734925246,-68.87481292737294],[153.63819868389248,-68.89450164807613],[154.2845674989992,-68.56129201265821],[155.16585737530477,-68.83564219169574],[155.92979007387544,-69.14921478284282],[156.81113162661336,-69.3842908733385],[158.02552778547238,-69.48226938896397],[159.1810128115187,-69.59983327242799],[159.6706986839165,-69.99174733492953],[160.8066500185564,-70.2268751018575],[161.57047936426272,-70.57961842868184],[162.68689700749633,-70.73635304782317],[163.8424337099749,-70.71676767998451],[164.91968061753118,-70.77552378350032],[166.11443973211942,-70.75593841566177],[167.30909549384296,-70.83433156344853],[168.42561648994115,-70.97148081475109],[169.46358930895587,-71.20666025811136],[170.50166548083496,-71.4026172893623],[171.20679039945753,-71.69650115980608],[171.0892265159937,-72.08841522230773],[170.5604215843507,-72.44115854913207],[170.10995812406236,-72.89182871514942],[169.75736982653507,-73.24452036554152],[169.2873209984083,-73.65601979588166],[167.97510135322068,-73.81280609145517],[167.38748864162972,-74.16549774184722],[166.09480268784841,-74.38104014093665],[165.64439090399242,-74.77295420343819],[164.9588513532085,-75.14528289810119],[164.23419274317962,-75.45880381281597],[163.8227966657039,-75.87030324315617],[163.56823856023425,-76.24258026138676],[163.47026004460895,-76.69330210383652],[163.48989708887973,-77.06557912206722],[164.05787275619969,-77.45744150813647],[164.27336347885694,-77.82977020279935],[164.74346398341606,-78.18251352962375],[166.60412560451732,-78.31961110449402],[166.99578128485734,-78.75074757910522],[165.19387576727195,-78.90748300569072],[163.66621707585955,-79.12302540477998],[161.7663847190811,-79.16224781688965],[160.92416222558825,-79.73048186637101],[160.74789391504066,-80.20073740022713],[160.31696414615863,-80.57306609489001],[159.78821089094833,-80.945394789553],[161.12001590397438,-81.27850107210645],[161.62928714421082,-81.6900005024466],[162.49099165267796,-82.0622775206773],[163.70533613510474,-82.39543547966286],[166.60412560451732,-83.02247730909255],[168.89566531806793,-83.3359982238074],[169.40478152900755,-83.82589080193435],[172.28393395414935,-84.04143320102366],[173.22408328683537,-84.41371021925437],[175.9856718285131,-84.15899708448768],[178.27721154206392,-84.47251799920247],[180,-84.71338]]]]},"properties":{"name":"Antarctica"}}]}